{
  "norad_id": 68005,
  "name": "STARLINK-36910",
  "history": [
    {
      "epoch": "2026-03-28T22:00:01.999584Z",
      "apogee_km": 481.71247148835846,
      "perigee_km": 479.52384271772735,
      "latitude_deg": -42.891618102012856,
      "longitude_deg": 46.455189387143626,
      "height_km": 492.7649952334741,
      "semi_major_axis_km": 6858.755157103043,
      "eccentricity": 0.00015955,
      "inclination_deg": 42.9994,
      "raan_deg": 300.5977,
      "arg_perigee_deg": 268.6467,
      "mean_anomaly_deg": 355.6198,
      "mean_motion_rev_day": 15.28392199
    },
    {
      "epoch": "2026-03-29T04:00:01.999584Z",
      "apogee_km": 481.88964387672695,
      "perigee_km": 479.28470043614107,
      "latitude_deg": -14.571465219763562,
      "longitude_deg": -111.30762660983419,
      "height_km": 482.9141573245714,
      "semi_major_axis_km": 6858.724172156433,
      "eccentricity": 0.0001899,
      "inclination_deg": 42.9995,
      "raan_deg": 299.1827,
      "arg_perigee_deg": 270.6869,
      "mean_anomaly_deg": 290.7758,
      "mean_motion_rev_day": 15.28402556
    },
    {
      "epoch": "2026-03-30T04:00:01.999584Z",
      "apogee_km": 483.99278805113954,
      "perigee_km": 482.30079546809156,
      "latitude_deg": -32.024139614874954,
      "longitude_deg": 4.120317458975139,
      "height_km": 491.11065420813645,
      "semi_major_axis_km": 6861.283791759615,
      "eccentricity": 0.0001233,
      "inclination_deg": 42.9994,
      "raan_deg": 293.5293,
      "arg_perigee_deg": 310.5481,
      "mean_anomaly_deg": 358.7631,
      "mean_motion_rev_day": 15.27547374
    },
    {
      "epoch": "2026-03-30T06:00:02.000160Z",
      "apogee_km": 483.9100111018797,
      "perigee_km": 482.28828932541455,
      "latitude_deg": 30.630431202673083,
      "longitude_deg": 54.563540404049846,
      "height_km": 484.15770003095747,
      "semi_major_axis_km": 6861.236150213646,
      "eccentricity": 0.00011818,
      "inclination_deg": 42.9994,
      "raan_deg": 293.0576,
      "arg_perigee_deg": 290.1225,
      "mean_anomaly_deg": 117.9844,
      "mean_motion_rev_day": 15.27563284
    },
    {
      "epoch": "2026-03-30T14:00:03.000384Z",
      "apogee_km": 484.3032363040302,
      "perigee_km": 481.9141505535781,
      "latitude_deg": 42.8029079385075,
      "longitude_deg": -25.81810777539388,
      "height_km": 487.3757202307127,
      "semi_major_axis_km": 6861.245693428804,
      "eccentricity": 0.0001741,
      "inclination_deg": 42.9993,
      "raan_deg": 291.176,
      "arg_perigee_deg": 265.4451,
      "mean_anomaly_deg": 177.9473,
      "mean_motion_rev_day": 15.27560097
    },
    {
      "epoch": "2026-03-30T22:00:00.999936Z",
      "apogee_km": 484.3697475532281,
      "perigee_km": 481.89845492798304,
      "latitude_deg": 36.962261957909654,
      "longitude_deg": -102.38293825354299,
      "height_km": 486.0868746519286,
      "semi_major_axis_km": 6861.271101240605,
      "eccentricity": 0.00018009,
      "inclination_deg": 42.9996,
      "raan_deg": 289.2956,
      "arg_perigee_deg": 272.6821,
      "mean_anomaly_deg": 205.8293,
      "mean_motion_rev_day": 15.27551612
    },
    {
      "epoch": "2026-03-31T16:00:01.999584Z",
      "apogee_km": 484.27410002709075,
      "perigee_km": 481.80682061236075,
      "latitude_deg": -40.6364443166525,
      "longitude_deg": 149.76748399855845,
      "height_km": 494.1905981401062,
      "semi_major_axis_km": 6861.1774603197255,
      "eccentricity": 0.0001798,
      "inclination_deg": 42.9994,
      "raan_deg": 285.0589,
      "arg_perigee_deg": 267.7219,
      "mean_anomaly_deg": 20.149,
      "mean_motion_rev_day": 15.27582884
    },
    {
      "epoch": "2026-04-01T18:59:34.168416Z",
      "apogee_km": 484.4489930523323,
      "perigee_km": 481.6070984903745,
      "latitude_deg": -3.3352930714306557e-06,
      "longitude_deg": 163.66220862641038,
      "height_km": 482.91931543938546,
      "semi_major_axis_km": 6861.165045771353,
      "eccentricity": 0.0002071,
      "inclination_deg": 42.9988,
      "raan_deg": 278.7039,
      "arg_perigee_deg": 265.3903,
      "mean_anomaly_deg": 94.6712,
      "mean_motion_rev_day": 15.2758703
    },
    {
      "epoch": "2026-04-02T20:00:01.999008Z",
      "apogee_km": 484.4940671522281,
      "perigee_km": 481.85795069419964,
      "latitude_deg": -15.584581011702786,
      "longitude_deg": 124.33452060236755,
      "height_km": 485.5585584057048,
      "semi_major_axis_km": 6861.313008923214,
      "eccentricity": 0.0001921,
      "inclination_deg": 43.0001,
      "raan_deg": 272.8235,
      "arg_perigee_deg": 278.7778,
      "mean_anomaly_deg": 58.2174,
      "mean_motion_rev_day": 15.27537617
    },
    {
      "epoch": "2026-04-02T22:00:01.999584Z",
      "apogee_km": 484.365959941455,
      "perigee_km": 482.0506675787801,
      "latitude_deg": 41.54478299630249,
      "longitude_deg": -178.00791671006667,
      "height_km": 487.0871954425358,
      "semi_major_axis_km": 6861.345313760117,
      "eccentricity": 0.00016872,
      "inclination_deg": 43.0003,
      "raan_deg": 272.3519,
      "arg_perigee_deg": 276.8446,
      "mean_anomaly_deg": 158.9573,
      "mean_motion_rev_day": 15.27526829
    },
    {
      "epoch": "2026-04-03T18:04:15.662784Z",
      "apogee_km": 484.37346340858494,
      "perigee_km": 481.66742291300307,
      "latitude_deg": -4.2064978172278395e-05,
      "longitude_deg": 164.4786423430409,
      "height_km": 482.5432621556252,
      "semi_major_axis_km": 6861.157443160794,
      "eccentricity": 0.0001972,
      "inclination_deg": 43.0004,
      "raan_deg": 267.6267,
      "arg_perigee_deg": 280.8371,
      "mean_anomaly_deg": 79.2258,
      "mean_motion_rev_day": 15.27589569
    },
    {
      "epoch": "2026-04-04T11:19:58.760832Z",
      "apogee_km": 485.59131191686447,
      "perigee_km": 480.31581938093586,
      "latitude_deg": 3.165457105851659e-06,
      "longitude_deg": -99.22710907532736,
      "height_km": 482.2624638477066,
      "semi_major_axis_km": 6861.090565648899,
      "eccentricity": 0.00038445,
      "inclination_deg": 42.9968,
      "raan_deg": 263.5594,
      "arg_perigee_deg": 280.2439,
      "mean_anomaly_deg": 79.7979,
      "mean_motion_rev_day": 15.27611904
    },
    {
      "epoch": "2026-04-05T10:52:20.244576Z",
      "apogee_km": 484.71737591251986,
      "perigee_km": 481.33619439919494,
      "latitude_deg": 9.839720030071765e-07,
      "longitude_deg": -98.8168530578227,
      "height_km": 482.4946678304815,
      "semi_major_axis_km": 6861.163785155857,
      "eccentricity": 0.0002464,
      "inclination_deg": 43.0011,
      "raan_deg": 258.0259,
      "arg_perigee_deg": 280.5577,
      "mean_anomaly_deg": 79.4997,
      "mean_motion_rev_day": 15.27587451
    },
    {
      "epoch": "2026-04-07T09:57:01.584288Z",
      "apogee_km": 483.6485545447904,
      "perigee_km": 482.2021053843873,
      "latitude_deg": -9.745705866629177e-06,
      "longitude_deg": -98.00004889216198,
      "height_km": 483.255699803412,
      "semi_major_axis_km": 6861.062329964589,
      "eccentricity": 0.00010541,
      "inclination_deg": 43.0017,
      "raan_deg": 246.9484,
      "arg_perigee_deg": 219.9788,
      "mean_anomaly_deg": 140.0986,
      "mean_motion_rev_day": 15.27621334
    },
    {
      "epoch": "2026-04-08T15:46:00.415200Z",
      "apogee_km": 484.3404357237905,
      "perigee_km": 481.6905214135177,
      "latitude_deg": 3.0298891943879097e-05,
      "longitude_deg": 166.51724761187887,
      "height_km": 482.3091415353727,
      "semi_major_axis_km": 6861.152478568653,
      "eccentricity": 0.00019311,
      "inclination_deg": 43.0036,
      "raan_deg": 239.9353,
      "arg_perigee_deg": 291.4175,
      "mean_anomaly_deg": 68.6471,
      "mean_motion_rev_day": 15.27591227
    },
    {
      "epoch": "2026-04-09T15:18:21.125664Z",
      "apogee_km": 484.4907321604578,
      "perigee_km": 481.5047663175892,
      "latitude_deg": -8.33928845092945e-06,
      "longitude_deg": 166.9247939760305,
      "height_km": 482.65253787231916,
      "semi_major_axis_km": 6861.134749239023,
      "eccentricity": 0.0002176,
      "inclination_deg": 43.003,
      "raan_deg": 234.3959,
      "arg_perigee_deg": 274.7203,
      "mean_anomaly_deg": 85.34,
      "mean_motion_rev_day": 15.27597148
    },
    {
      "epoch": "2026-04-10T10:08:13.925760Z",
      "apogee_km": 484.1971606951465,
      "perigee_km": 481.8341797155281,
      "latitude_deg": 3.7205443364662326e-05,
      "longitude_deg": -120.75193529847013,
      "height_km": 482.74468303301467,
      "semi_major_axis_km": 6861.152670205337,
      "eccentricity": 0.0001722,
      "inclination_deg": 43.0019,
      "raan_deg": 229.9625,
      "arg_perigee_deg": 272.3362,
      "mean_anomaly_deg": 87.7293,
      "mean_motion_rev_day": 15.27591163
    },
    {
      "epoch": "2026-04-11T14:23:02.956992Z",
      "apogee_km": 483.7766182554533,
      "perigee_km": 482.2616749782801,
      "latitude_deg": 3.553583247473698e-05,
      "longitude_deg": 167.73510266874138,
      "height_km": 482.96878033054935,
      "semi_major_axis_km": 6861.156146616866,
      "eccentricity": 0.0001104,
      "inclination_deg": 43.0004,
      "raan_deg": 223.3139,
      "arg_perigee_deg": 256.7826,
      "mean_anomaly_deg": 103.2903,
      "mean_motion_rev_day": 15.27590002
    },
    {
      "epoch": "2026-04-13T00:54:29.062368Z",
      "apogee_km": 484.17661658822817,
      "perigee_km": 481.8473937239569,
      "latitude_deg": 2.533973639276728e-05,
      "longitude_deg": 0.33687134361875476,
      "height_km": 482.7054244033223,
      "semi_major_axis_km": 6861.149005156092,
      "eccentricity": 0.00016974,
      "inclination_deg": 43.0031,
      "raan_deg": 215.1923,
      "arg_perigee_deg": 274.1299,
      "mean_anomaly_deg": 85.9359,
      "mean_motion_rev_day": 15.27592387
    },
    {
      "epoch": "2026-04-14T08:17:36.898944Z",
      "apogee_km": 483.94442735204393,
      "perigee_km": 482.1262166867082,
      "latitude_deg": 2.1702702177700533e-05,
      "longitude_deg": -119.12364094488153,
      "height_km": 483.22787541925453,
      "semi_major_axis_km": 6861.172322019375,
      "eccentricity": 0.0001325,
      "inclination_deg": 43.0001,
      "raan_deg": 207.8034,
      "arg_perigee_deg": 242.7618,
      "mean_anomaly_deg": 117.3099,
      "mean_motion_rev_day": 15.275846
    },
    {
      "epoch": "2026-04-15T07:49:57.747648Z",
      "apogee_km": 484.05922612430277,
      "perigee_km": 482.0141846896686,
      "latitude_deg": -1.4190261397536444e-05,
      "longitude_deg": -118.71366467833545,
      "height_km": 482.9809553652399,
      "semi_major_axis_km": 6861.173705406985,
      "eccentricity": 0.00014903,
      "inclination_deg": 43.0036,
      "raan_deg": 202.267,
      "arg_perigee_deg": 260.5939,
      "mean_anomaly_deg": 99.4744,
      "mean_motion_rev_day": 15.27584138
    }
  ]
}